start=new Date('2023-04-16T00:00:00.000Z').valueOf();
sats=[{"REV_AT_EPOCH":"1780","TLE_LINE1":"1 54862U 22177AU  23105.71544800 -.00000660  00000-0 -33798-4 0  9992","APOAPSIS":"560.391","EPHEMERIS_TYPE":"0","INCLINATION":"43.0037","MEAN_MOTION":"15.02523515","TLE_LINE2":"2 54862  43.0037 114.8794 0001832 263.7471  96.3163 15.02523515 17805","DECAY_DATE":null,"NORAD_CAT_ID":"54862","ECCENTRICITY":"0.00018320","LAUNCH_DATE":"2022-12-28","CENTER_NAME":"EARTH","RCS_SIZE":"LARGE","COUNTRY_CODE":"US","ARG_OF_PERICENTER":"263.7471","PERIOD":"95.839","OBJECT_ID":"2022-177AU","MEAN_ANOMALY":"96.3163","SEMIMAJOR_AXIS":"6937.255","OBJECT_NAME":"STARLINK-5403","EPOCH":"2023-04-15T17:10:14.707200","CLASSIFICATION_TYPE":"U","GP_ID":"230132919","FILE":"3888171","OBJECT_TYPE":"PAYLOAD","TIME_SYSTEM":"UTC","MEAN_MOTION_DDOT":"0.0000000000000","MEAN_MOTION_DOT":"-0.00000660","BSTAR":"-0.00003379800000","RA_OF_ASC_NODE":"114.8794","MEAN_ELEMENT_THEORY":"SGP4","SITE":"AFETR","PERIAPSIS":"557.849","ELEMENT_SET_NO":"999","REF_FRAME":"TEME"},{"RCS_SIZE":"LARGE","CENTER_NAME":"EARTH","LAUNCH_DATE":"2022-12-28","ECCENTRICITY":"0.00010390","NORAD_CAT_ID":"54863","DECAY_DATE":null,"ARG_OF_PERICENTER":"283.7416","OBJECT_ID":"2022-177AV","PERIOD":"95.838","COUNTRY_CODE":"US","APOAPSIS":"559.808","TLE_LINE1":"1 54863U 22177AV  23105.74973569 -.00001681  00000-0 -10938-3 0  9998","EPHEMERIS_TYPE":"0","INCLINATION":"43.0019","REV_AT_EPOCH":"1781","TLE_LINE2":"2 54863  43.0019 114.2654 0001039 283.7416  76.3311 15.02534290 17811","MEAN_MOTION":"15.02534290","SITE":"AFETR","MEAN_ELEMENT_THEORY":"SGP4","RA_OF_ASC_NODE":"114.2654","MEAN_MOTION_DDOT":"0.0000000000000","MEAN_MOTION_DOT":"-0.00001681","BSTAR":"-0.00010938000000","ELEMENT_SET_NO":"999","REF_FRAME":"TEME","PERIAPSIS":"558.366","EPOCH":"2023-04-15T17:59:37.163616","OBJECT_NAME":"STARLINK-5405","SEMIMAJOR_AXIS":"6937.222","MEAN_ANOMALY":"76.3311","FILE":"3888171","OBJECT_TYPE":"PAYLOAD","TIME_SYSTEM":"UTC","CLASSIFICATION_TYPE":"U","GP_ID":"230134170"},{"DECAY_DATE":null,"NORAD_CAT_ID":"54864","LAUNCH_DATE":"2022-12-28","ECCENTRICITY":"0.00010610","CENTER_NAME":"EARTH","RCS_SIZE":"LARGE","COUNTRY_CODE":"US","OBJECT_ID":"2022-177AW","PERIOD":"95.838","ARG_OF_PERICENTER":"270.2939","REV_AT_EPOCH":"1781","INCLINATION":"43.0022","APOAPSIS":"559.826","TLE_LINE1":"1 54864U 22177AW  23105.73641178  .00000234  00000-0  32410-4 0  9997","EPHEMERIS_TYPE":"0","MEAN_MOTION":"15.02533416","TLE_LINE2":"2 54864  43.0022 114.1630 0001061 270.2939  89.7782 15.02533416 17814","BSTAR":"0.00003241000000","MEAN_MOTION_DOT":"0.00000234","MEAN_MOTION_DDOT":"0.0000000000000","RA_OF_ASC_NODE":"114.1630","MEAN_ELEMENT_THEORY":"SGP4","SITE":"AFETR","PERIAPSIS":"558.353","ELEMENT_SET_NO":"999","REF_FRAME":"TEME","MEAN_ANOMALY":"89.7782","SEMIMAJOR_AXIS":"6937.224","OBJECT_NAME":"STARLINK-5359","EPOCH":"2023-04-15T17:40:25.977792","GP_ID":"230134417","CLASSIFICATION_TYPE":"U","TIME_SYSTEM":"UTC","OBJECT_TYPE":"PAYLOAD","FILE":"3888171"},{"GP_ID":"230132670","CLASSIFICATION_TYPE":"U","TIME_SYSTEM":"UTC","OBJECT_TYPE":"PAYLOAD","FILE":"3888171","OBJECT_NAME":"STARLINK-5411","MEAN_ANOMALY":"74.6945","SEMIMAJOR_AXIS":"6937.220","EPOCH":"2023-04-15T18:04:25.012992","REF_FRAME":"TEME","ELEMENT_SET_NO":"999","PERIAPSIS":"558.372","RA_OF_ASC_NODE":"114.2905","BSTAR":"-0.00003396200000","MEAN_MOTION_DDOT":"0.0000000000000","MEAN_MOTION_DOT":"-0.00000662","SITE":"AFETR","MEAN_ELEMENT_THEORY":"SGP4","MEAN_MOTION":"15.02534890","TLE_LINE2":"2 54865  43.0019 114.2905 0001027 285.3784  74.6945 15.02534890 17815","INCLINATION":"43.0019","APOAPSIS":"559.797","TLE_LINE1":"1 54865U 22177AX  23105.75306728 -.00000662  00000-0 -33962-4 0  9999","EPHEMERIS_TYPE":"0","REV_AT_EPOCH":"1781","PERIOD":"95.838","OBJECT_ID":"2022-177AX","ARG_OF_PERICENTER":"285.3784","COUNTRY_CODE":"US","DECAY_DATE":null,"NORAD_CAT_ID":"54865","RCS_SIZE":"LARGE","LAUNCH_DATE":"2022-12-28","ECCENTRICITY":"0.00010270","CENTER_NAME":"EARTH"},{"RCS_SIZE":"LARGE","CENTER_NAME":"EARTH","LAUNCH_DATE":"2022-12-28","ECCENTRICITY":"0.00013710","DECAY_DATE":null,"NORAD_CAT_ID":"54866","OBJECT_ID":"2022-177AY","PERIOD":"95.837","ARG_OF_PERICENTER":"263.6237","COUNTRY_CODE":"US","INCLINATION":"43.0031","EPHEMERIS_TYPE":"0","TLE_LINE1":"1 54866U 22177AY  23105.86158745  .00000596  00000-0  59204-4 0  9997","APOAPSIS":"560.008","REV_AT_EPOCH":"1783","TLE_LINE2":"2 54866  43.0031 113.3821 0001371 263.6237  96.4449 15.02543876 17838","MEAN_MOTION":"15.02543876","SITE":"AFETR","MEAN_ELEMENT_THEORY":"SGP4","RA_OF_ASC_NODE":"113.3821","BSTAR":"0.00005920400000","MEAN_MOTION_DOT":"0.00000596","MEAN_MOTION_DDOT":"0.0000000000000","ELEMENT_SET_NO":"999","REF_FRAME":"TEME","PERIAPSIS":"558.106","EPOCH":"2023-04-15T20:40:41.155680","OBJECT_NAME":"STARLINK-5398","MEAN_ANOMALY":"96.4449","SEMIMAJOR_AXIS":"6937.192","TIME_SYSTEM":"UTC","FILE":"3888171","OBJECT_TYPE":"PAYLOAD","GP_ID":"230133419","CLASSIFICATION_TYPE":"U"},{"TLE_LINE2":"2 54867  43.0019 114.1887 0001213 272.2351  87.8353 15.02537863 17819","MEAN_MOTION":"15.02537863","INCLINATION":"43.0019","EPHEMERIS_TYPE":"0","TLE_LINE1":"1 54867U 22177AZ  23105.73974114 -.00000818  00000-0 -45483-4 0  9993","APOAPSIS":"559.917","REV_AT_EPOCH":"1781","OBJECT_ID":"2022-177AZ","PERIOD":"95.838","ARG_OF_PERICENTER":"272.2351","COUNTRY_CODE":"US","RCS_SIZE":"LARGE","LAUNCH_DATE":"2022-12-28","CENTER_NAME":"EARTH","ECCENTRICITY":"0.00012130","DECAY_DATE":null,"NORAD_CAT_ID":"54867","TIME_SYSTEM":"UTC","FILE":"3888171","OBJECT_TYPE":"PAYLOAD","GP_ID":"230133671","CLASSIFICATION_TYPE":"U","EPOCH":"2023-04-15T17:45:13.634496","OBJECT_NAME":"STARLINK-5396","MEAN_ANOMALY":"87.8353","SEMIMAJOR_AXIS":"6937.211","ELEMENT_SET_NO":"999","REF_FRAME":"TEME","PERIAPSIS":"558.234","SITE":"AFETR","MEAN_ELEMENT_THEORY":"SGP4","RA_OF_ASC_NODE":"114.1887","BSTAR":"-0.00004548300000","MEAN_MOTION_DDOT":"0.0000000000000","MEAN_MOTION_DOT":"-0.00000818"},{"DECAY_DATE":null,"NORAD_CAT_ID":"54868","LAUNCH_DATE":"2022-12-28","CENTER_NAME":"EARTH","ECCENTRICITY":"0.00012670","RCS_SIZE":"LARGE","COUNTRY_CODE":"US","OBJECT_ID":"2022-177BA","PERIOD":"95.838","ARG_OF_PERICENTER":"265.8876","REV_AT_EPOCH":"1781","INCLINATION":"43.0022","APOAPSIS":"559.969","TLE_LINE1":"1 54868U 22177BA  23105.72309412 -.00000475  00000-0 -20067-4 0  9996","EPHEMERIS_TYPE":"0","MEAN_MOTION":"15.02533126","TLE_LINE2":"2 54868  43.0022 114.0609 0001267 265.8876  94.1822 15.02533126 17814","BSTAR":"-0.00002006700000","MEAN_MOTION_DDOT":"0.0000000000000","MEAN_MOTION_DOT":"-0.00000475","RA_OF_ASC_NODE":"114.0609","MEAN_ELEMENT_THEORY":"SGP4","SITE":"AFETR","PERIAPSIS":"558.211","ELEMENT_SET_NO":"999","REF_FRAME":"TEME","SEMIMAJOR_AXIS":"6937.225","MEAN_ANOMALY":"94.1822","OBJECT_NAME":"STARLINK-5379","EPOCH":"2023-04-15T17:21:15.331968","GP_ID":"230133918","CLASSIFICATION_TYPE":"U","TIME_SYSTEM":"UTC","FILE":"3888171","OBJECT_TYPE":"PAYLOAD"},{"SEMIMAJOR_AXIS":"6937.221","MEAN_ANOMALY":"93.5410","OBJECT_NAME":"STARLINK-5402","EPOCH":"2023-04-15T17:32:26.255616","CLASSIFICATION_TYPE":"U","GP_ID":"230133170","OBJECT_TYPE":"PAYLOAD","FILE":"3888171","TIME_SYSTEM":"UTC","MEAN_MOTION_DDOT":"0.0000000000000","MEAN_MOTION_DOT":"0.00000295","BSTAR":"0.00003690100000","RA_OF_ASC_NODE":"114.1219","MEAN_ELEMENT_THEORY":"SGP4","SITE":"AFETR","PERIAPSIS":"558.290","ELEMENT_SET_NO":"999","REF_FRAME":"TEME","REV_AT_EPOCH":"1781","TLE_LINE1":"1 54869U 22177BB  23105.73085944  .00000295  00000-0  36901-4 0  9991","APOAPSIS":"559.882","EPHEMERIS_TYPE":"0","INCLINATION":"43.0030","MEAN_MOTION":"15.02534534","TLE_LINE2":"2 54869  43.0030 114.1219 0001148 266.5301  93.5410 15.02534534 17811","DECAY_DATE":null,"NORAD_CAT_ID":"54869","LAUNCH_DATE":"2022-12-28","ECCENTRICITY":"0.00011480","CENTER_NAME":"EARTH","RCS_SIZE":"LARGE","COUNTRY_CODE":"US","ARG_OF_PERICENTER":"266.5301","OBJECT_ID":"2022-177BB","PERIOD":"95.838"},{"REV_AT_EPOCH":"1781","INCLINATION":"43.0024","EPHEMERIS_TYPE":"0","TLE_LINE1":"1 54870U 22177BC  23105.72642032  .00000345  00000-0  40636-4 0  9995","APOAPSIS":"559.961","TLE_LINE2":"2 54870  43.0024 114.0844 0001265 273.5354  86.5344 15.02535401 17817","MEAN_MOTION":"15.02535401","ECCENTRICITY":"0.00012650","LAUNCH_DATE":"2022-12-28","CENTER_NAME":"EARTH","RCS_SIZE":"LARGE","DECAY_DATE":null,"NORAD_CAT_ID":"54870","COUNTRY_CODE":"US","OBJECT_ID":"2022-177BC","PERIOD":"95.838","ARG_OF_PERICENTER":"273.5354","EPOCH":"2023-04-15T17:26:02.715648","SEMIMAJOR_AXIS":"6937.218","MEAN_ANOMALY":"86.5344","OBJECT_NAME":"STARLINK-5401","TIME_SYSTEM":"UTC","FILE":"3888171","OBJECT_TYPE":"PAYLOAD","GP_ID":"230132920","CLASSIFICATION_TYPE":"U","MEAN_ELEMENT_THEORY":"SGP4","SITE":"AFETR","BSTAR":"0.00004063600000","MEAN_MOTION_DDOT":"0.0000000000000","MEAN_MOTION_DOT":"0.00000345","RA_OF_ASC_NODE":"114.0844","PERIAPSIS":"558.206","ELEMENT_SET_NO":"999","REF_FRAME":"TEME"},{"DECAY_DATE":null,"NORAD_CAT_ID":"54871","ECCENTRICITY":"0.00009490","LAUNCH_DATE":"2022-12-28","CENTER_NAME":"EARTH","RCS_SIZE":"LARGE","COUNTRY_CODE":"US","ARG_OF_PERICENTER":"268.0782","OBJECT_ID":"2022-177BD","PERIOD":"95.837","REV_AT_EPOCH":"1781","EPHEMERIS_TYPE":"0","TLE_LINE1":"1 54871U 22177BD  23105.73418091 -.00002039  00000-0 -13592-3 0  9997","APOAPSIS":"559.716","INCLINATION":"43.0013","MEAN_MOTION":"15.02543827","TLE_LINE2":"2 54871  43.0013 114.1480 0000949 268.0782  91.9952 15.02543827 17811","MEAN_MOTION_DDOT":"0.0000000000000","MEAN_MOTION_DOT":"-0.00002039","BSTAR":"-0.00013592000000","RA_OF_ASC_NODE":"114.1480","MEAN_ELEMENT_THEORY":"SGP4","SITE":"AFETR","PERIAPSIS":"558.399","ELEMENT_SET_NO":"999","REF_FRAME":"TEME","SEMIMAJOR_AXIS":"6937.192","MEAN_ANOMALY":"91.9952","OBJECT_NAME":"STARLINK-5397","EPOCH":"2023-04-15T17:37:13.230624","CLASSIFICATION_TYPE":"U","GP_ID":"230134171","FILE":"3888171","OBJECT_TYPE":"PAYLOAD","TIME_SYSTEM":"UTC"}];
